[
    {
        "Altitude(m)": 611967.1426208473,
        "Argument of Periapsis(deg)": 0.0,
        "Eccentricity": 0.0,
        "Inclination(deg)": 60.0,
        "Latitude(deg)": 59.14005150742838,
        "Longitude(deg)": -83.90792993229421,
        "Mean Anomaly(deg)": -261.8182,
        "RAAN(deg)": 270.0,
        "Satellite Name": "Test1 1194",
        "Satellite Number": 1194,
        "Semi-Major Axis(m)": 6980739.136638005,
        "Time(s)": 0
    },
    {
        "Altitude(m)": 611934.342338618,
        "Argument of Periapsis(deg)": 0.00010418945913296404,
        "Eccentricity": 0.0,
        "Inclination(deg)": 60.0,
        "Latitude(deg)": 58.98641356443394,
        "Longitude(deg)": -82.78468785553198,
        "Mean Anomaly(deg)": -261.1980938545382,
        "RAAN(deg)": 269.99957995086027,
        "Satellite Name": "Test1 1194",
        "Satellite Number": 1194,
        "Semi-Major Axis(m)": 6980739.136638005,
        "Time(s)": 10
    }
]